$$SOE
2459580.500000000, A.D. 2022-Jan-01 00:00:00.0000, 1.920170796429355E+08, -4.875464093308045E+08, 5.867326153155278E+07,
2459587.500000000, A.D. 2022-Jan-08 00:00:00.0000, 2.009548520945573E+08, -4.845244504307900E+08, 5.845866060583380E+07,
2459594.500000000, A.D. 2022-Jan-15 00:00:00.0000, 2.098263453888489E+08, -4.813424448830347E+08, 5.822473858272642E+07,
2459601.500000000, A.D. 2022-Jan-22 00:00:00.0000, 2.186288377274375E+08, -4.780019062938713E+08, 5.797162805392830E+07,
2459608.500000000, A.D. 2022-Jan-29 00:00:00.0000, 2.273596442125047E+08, -4.745043841760298E+08, 5.769946665717746E+07,
2459615.500000000, A.D. 2022-Feb-05 00:00:00.0000, 2.360161148834925E+08, -4.708514637645332E+08, 5.740839712990880E+07,
2459622.500000000, A.D. 2022-Feb-12 00:00:00.0000, 2.445956349090411E+08, -4.670447669129217E+08, 5.709856707885188E+07,
2459629.500000000, A.D. 2022-Feb-19 00:00:00.0000, 2.530956256106285E+08, -4.630859517012657E+08, 5.677012878071311E+07,
2459636.500000000, A.D. 2022-Feb-26 00:00:00.0000, 2.615135450074540E+08, -4.589767114794651E+08, 5.642323907509339E+07,
2459643.500000000, A.D. 2022-Mar-05 00:00:00.0000, 2.698468880425855E+08, -4.547187739629474E+08, 5.605805928443311E+07,
2459650.500000000, A.D. 2022-Mar-12 00:00:00.0000, 2.780931867129136E+08, -4.503139004465370E+08, 5.567475513501631E+07,
2459657.500000000, A.D. 2022-Mar-19 00:00:00.0000, 2.862500101746498E+08, -4.457638851083844E+08, 5.527349667451797E+07,
2459664.500000000, A.D. 2022-Mar-26 00:00:00.0000, 2.943149648473980E+08, -4.410705544096359E+08, 5.485445818323016E+07,
2459671.500000000, A.D. 2022-Apr-02 00:00:00.0000, 3.022856945853382E+08, -4.362357666452210E+08, 5.441781806785798E+07,
2459678.500000000, A.D. 2022-Apr-09 00:00:00.0000, 3.101598811886260E+08, -4.312614116405417E+08, 5.396375871312135E+07,
2459685.500000000, A.D. 2022-Apr-16 00:00:00.0000, 3.179352456134118E+08, -4.261494099401288E+08, 5.349246631186259E+07,
2459692.500000000, A.D. 2022-Apr-23 00:00:00.0000, 3.256095486125193E+08, -4.209017104046873E+08, 5.300413087878521E+07,
2459699.500000000, A.D. 2022-Apr-30 00:00:00.0000, 3.331805889366221E+08, -4.155202884620680E+08, 5.249894643580773E+07,
2459706.500000000, A.D. 2022-May-07 00:00:00.0000, 3.406462021583430E+08, -4.100071469849183E+08, 5.197711092649248E+07,
2459713.500000000, A.D. 2022-May-14 00:00:00.0000, 3.480042615089397E+08, -4.043643167559865E+08, 5.143882598016572E+07,
2459720.500000000, A.D. 2022-May-21 00:00:00.0000, 3.552526786969268E+08, -3.985938557618415E+08, 5.088429677392709E+07,
2459727.500000000, A.D. 2022-May-28 00:00:00.0000, 3.623894042302621E+08, -3.926978482730153E+08, 5.031373195798290E+07,
2459734.500000000, A.D. 2022-Jun-04 00:00:00.0000, 3.694124275200707E+08, -3.866784040225188E+08, 4.972734359325102E+07,
2459741.500000000, A.D. 2022-Jun-11 00:00:00.0000, 3.763197769118780E+08, -3.805376574800494E+08, 4.912534708824837E+07,
2459748.500000000, A.D. 2022-Jun-18 00:00:00.0000, 3.831095196843614E+08, -3.742777672086027E+08, 4.850796113302980E+07,
2459755.500000000, A.D. 2022-Jun-25 00:00:00.0000, 3.897797620459769E+08, -3.679009153368690E+08, 4.787540762500474E+07,
2459762.500000000, A.D. 2022-Jul-02 00:00:00.0000, 3.963286492640012E+08, -3.614093072131011E+08, 4.722791156910804E+07,
2459769.500000000, A.D. 2022-Jul-09 00:00:00.0000, 4.027543663167902E+08, -3.548051710631387E+08, 4.656570093112324E+07,
2459776.500000000, A.D. 2022-Jul-16 00:00:00.0000, 4.090551390149249E+08, -3.480907565697207E+08, 4.588900653797515E+07,
2459783.500000000, A.D. 2022-Jul-23 00:00:00.0000, 4.152292333934105E+08, -3.412683322958611E+08, 4.519806223330386E+07,
2459790.500000000, A.D. 2022-Jul-30 00:00:00.0000, 4.212749534585536E+08, -3.343401853061658E+08, 4.449310500656278E+07,
2459797.500000000, A.D. 2022-Aug-06 00:00:00.0000, 4.271906408877817E+08, -3.273086223368844E+08, 4.377437481841202E+07,
2459804.500000000, A.D. 2022-Aug-13 00:00:00.0000, 4.329746758595572E+08, -3.201759697593977E+08, 4.304211442313555E+07,
2459811.500000000, A.D. 2022-Aug-20 00:00:00.0000, 4.386254774445245E+08, -3.129445728401459E+08, 4.229656929112968E+07,
2459818.500000000, A.D. 2022-Aug-27 00:00:00.0000, 4.441415036263654E+08, -3.056167950231221E+08, 4.153798756602366E+07,
2459825.500000000, A.D. 2022-Sep-03 00:00:00.0000, 4.495212512006721E+08, -2.981950173449411E+08, 4.076662002480391E+07,
2459832.500000000, A.D. 2022-Sep-10 00:00:00.0000, 4.547632556424464E+08, -2.906816379580957E+08, 3.998272003474970E+07,
2459839.500000000, A.D. 2022-Sep-17 00:00:00.0000, 4.598660909721928E+08, -2.830790717638270E+08, 3.918654350440115E+07,
2459846.500000000, A.D. 2022-Sep-24 00:00:00.0000, 4.648283696814349E+08, -2.753897502052536E+08, 3.837834881880979E+07,
2459853.500000000, A.D. 2022-Oct-01 00:00:00.0000, 4.696487429578426E+08, -2.676161212426624E+08, 3.755839673504866E+07,
2459860.500000000, A.D. 2022-Oct-08 00:00:00.0000, 4.743259016177172E+08, -2.597606489882639E+08, 3.672695024307409E+07,
2459867.500000000, A.D. 2022-Oct-15 00:00:00.0000, 4.788585768151257E+08, -2.518258118010612E+08, 3.588427457533006E+07,
2459874.500000000, A.D. 2022-Oct-22 00:00:00.0000, 4.832455383469304E+08, -2.438141005263470E+08, 3.503063742747628E+07,
2459881.500000000, A.D. 2022-Oct-29 00:00:00.0000, 4.874855930510792E+08, -2.357280194733944E+08, 3.416630894873416E+07,
2459888.500000000, A.D. 2022-Nov-05 00:00:00.0000, 4.915775853970504E+08, -2.275700873893043E+08, 3.329156153281825E+07,
2459895.500000000, A.D. 2022-Nov-12 00:00:00.0000, 4.955203983040429E+08, -2.193428371611467E+08, 3.240666969298171E+07,
2459902.500000000, A.D. 2022-Nov-19 00:00:00.0000, 4.993129534680564E+08, -2.110488152002181E+08, 3.151191000901720E+07,
2459909.500000000, A.D. 2022-Nov-26 00:00:00.0000, 5.029542114604412E+08, -2.026905809054525E+08, 3.060756108953618E+07,
2459916.500000000, A.D. 2022-Dec-03 00:00:00.0000, 5.064431717642915E+08, -1.942707062171671E+08, 2.969390353324308E+07,
2459923.500000000, A.D. 2022-Dec-10 00:00:00.0000, 5.097788727946025E+08, -1.857917752421432E+08, 2.877121988650000E+07,
2459930.500000000, A.D. 2022-Dec-17 00:00:00.0000, 5.129603919272989E+08, -1.772563839748427E+08, 2.783979459285475E+07,
2459937.500000000, A.D. 2022-Dec-24 00:00:00.0000, 5.159868456466660E+08, -1.686671401805097E+08, 2.689991391908593E+07,
2459944.500000000, A.D. 2022-Dec-31 00:00:00.0000, 5.188573901685563E+08, -1.600266633323898E+08, 2.595186583366855E+07,
2459951.500000000, A.D. 2023-Jan-07 00:00:00.0000, 5.215712226618942E+08, -1.513375836400288E+08, 2.499593990502026E+07,
2459958.500000000, A.D. 2023-Jan-14 00:00:00.0000, 5.241275811020217E+08, -1.426025396715371E+08, 2.403242744068774E+07,
2459965.500000000, A.D. 2023-Jan-21 00:00:00.0000, 5.265257421111963E+08, -1.338241777428699E+08, 2.306162166736301E+07,
2459972.500000000, A.D. 2023-Jan-28 00:00:00.0000, 5.287650204528345E+08, -1.250051532691772E+08, 2.208381759906981E+07,
2459979.500000000, A.D. 2023-Feb-04 00:00:00.0000, 5.308447699701092E+08, -1.161481310489486E+08, 2.109931185996518E+07,
2459986.500000000, A.D. 2023-Feb-11 00:00:00.0000, 5.327643841742471E+08, -1.072557846732283E+08, 2.010840261074699E+07,
2459993.500000000, A.D. 2023-Feb-18 00:00:00.0000, 5.345232964203787E+08, -9.833079588231172E+07, 1.911138951743046E+07,
2460000.500000000, A.D. 2023-Feb-25 00:00:00.0000, 5.361209799348396E+08, -8.937585403134677E+07, 1.810857372541089E+07,
2460007.500000000, A.D. 2023-Mar-04 00:00:00.0000, 5.375569477969724E+08, -8.039365564585803E+07, 1.710025783118592E+07,
2460014.500000000, A.D. 2023-Mar-11 00:00:00.0000, 5.388307529045812E+08, -7.138690406654021E+07, 1.608674584933288E+07,
2460021.500000000, A.D. 2023-Mar-18 00:00:00.0000, 5.399419879703634E+08, -6.235830923259337E+07, 1.506834316652512E+07,
2460028.500000000, A.D. 2023-Mar-25 00:00:00.0000, 5.408902857525082E+08, -5.331058765055262E+07, 1.404535646017893E+07,
2460035.500000000, A.D. 2023-Apr-01 00:00:00.0000, 5.416753199433410E+08, -4.424646215462642E+07, 1.301809357498936E+07,
2460042.500000000, A.D. 2023-Apr-08 00:00:00.0000, 5.422968061002586E+08, -3.516866023229704E+07, 1.198686351404679E+07,
2460049.500000000, A.D. 2023-Apr-15 00:00:00.0000, 5.427545002829845E+08, -2.607991202042590E+07, 1.095197666877511E+07,
2460056.500000000, A.D. 2023-Apr-22 00:00:00.0000, 5.430481972070098E+08, -1.698295102402837E+07, 9.913744872411583E+06,
2460063.500000000, A.D. 2023-Apr-29 00:00:00.0000, 5.431777306473612E+08, -7.880515304661795E+06, 8.872481210115353E+06,
2460070.500000000, A.D. 2023-May-06 00:00:00.0000, 5.431429743319192E+08, 1.224652643607439E+06, 7.828499892609979E+06,
2460077.500000000, A.D. 2023-May-13 00:00:00.0000, 5.429438423476267E+08, 1.032980643782930E+07, 6.782116209822757E+06,
2460084.500000000, A.D. 2023-May-20 00:00:00.0000, 5.425802892938519E+08, 1.943219627879700E+07, 5.733646502710246E+06,
2460091.500000000, A.D. 2023-May-27 00:00:00.0000, 5.420523103763981E+08, 2.852906932370454E+07, 4.683408132845264E+06,
2460098.500000000, A.D. 2023-Jun-03 00:00:00.0000, 5.413599414997129E+08, 3.761766998529531E+07, 3.631719446296584E+06,
2460105.500000000, A.D. 2023-Jun-10 00:00:00.0000, 5.405032593810881E+08, 4.669524014420268E+07, 2.578899728171086E+06,
2460112.500000000, A.D. 2023-Jun-17 00:00:00.0000, 5.394823817759367E+08, 5.575901921473362E+07, 1.525269134412039E+06,
2460119.500000000, A.D. 2023-Jun-24 00:00:00.0000, 5.382974681339335E+08, 6.480624411985810E+07, 4.711485757005922E+05,
2460126.500000000, A.D. 2023-Jul-01 00:00:00.0000, 5.369487209382718E+08, 7.383415000378318E+07, -5.831404024151526E+05,
2460133.500000000, A.D. 2023-Jul-08 00:00:00.0000, 5.354363860534284E+08, 8.283997250531593E+07, -1.637275522602461E+06,
2460140.500000000, A.D. 2023-Jul-15 00:00:00.0000, 5.337607508057798E+08, 9.182094876316650E+07, -2.690933576237764E+06,
2460147.500000000, A.D. 2023-Jul-22 00:00:00.0000, 5.319221433189220E+08, 1.007743161184990E+08, -3.743790529052079E+06,
$$EOE